{
  "features": [
    {
      "geometry": {
        "coordinates": [
          [
            [
              -4.441241113866643,
              44.842226917267936
            ],
            [
              -3.766837282967118,
              44.88792263139271
            ],
            [
              -3.268231871966873,
              43.79100868974408
            ],
            [
              -3.3068230507462704,
              42.689836929648614
            ],
            [
              -3.3962426617413,
              42.618153418081704
            ],
            [
              -5.0,
              42.77806175183891
            ],
            [
              -5.0,
              44.34606725223807
            ],
            [
              -4.441241113866643,
              44.842226917267936
            ]
          ]
        ],
        "type": "Polygon"
      },
      "properties": {
        "id": "FR_TOY_000",
        "name": "Toy_000"
      },
      "type": "Feature"
    },
    {
      "geometry": {
        "coordinates": [
          [
            [
              -3.766837282967118,
              44.88792263139271
            ],
            [
              -4.441241113866643,
              44.842226917267936
            ],
            [
              -5.0,
              45.487568088182435
            ],
            [
              -5.0,
              46.766137766332605
            ],
            [
              -4.331521061845544,
              47.631568631583086
            ],
            [
              -3.5259811517057464,
              46.880073451520246
            ],
            [
              -3.215438771492497,
              45.77944453528982
            ],
            [
              -3.205690093382963,
              45.572566855425976
            ],
            [
              -3.766837282967118,
              44.88792263139271
            ]
          ]
        ],
        "type": "Polygon"
      },
      "properties": {
        "id": "FR_TOY_001",
        "name": "Toy_001"
      },
      "type": "Feature"
    },
    {
      "geometry": {
        "coordinates": [
          [
            [
              -4.3589486815930485,
              47.72413568589405
            ],
            [
              -5.0,
              47.882740815804276
            ],
            [
              -5.0,
              49.49894541682171
            ],
            [
              -4.20945255055049,
              49.15591258847592
            ],
            [
              -3.9466313614653172,
              48.69743173580897
            ],
            [
              -4.3589486815930485,
              47.72413568589405
            ]
          ]
        ],
        "type": "Polygon"
      },
      "properties": {
        "id": "FR_TOY_002",
        "name": "Toy_002"
      },
      "type": "Feature"
    },
    {
      "geometry": {
        "coordinates": [
          [
            [
              -5.0,
              49.49894541682171
            ],
            [
              -5.0,
              50.33627043690911
            ],
            [
              -3.9852271642505936,
              50.94977394874765
            ],
            [
              -4.20945255055049,
              49.15591258847592
            ],
            [
              -5.0,
              49.49894541682171
            ]
          ]
        ],
        "type": "Polygon"
      },
      "properties": {
        "id": "FR_TOY_003",
        "name": "Toy_003"
      },
      "type": "Feature"
    },
    {
      "geometry": {
        "coordinates": [
          [
            [
              -1.7873936316379935,
              43.98738076287678
            ],
            [
              -1.3277178320043104,
              43.62679769510022
            ],
            [
              -1.6692734051757792,
              42.595767627258
            ],
            [
              -1.9920878338096601,
              42.34342521220733
            ],
            [
              -3.3068230507462704,
              42.689836929648614
            ],
            [
              -3.268231871966873,
              43.79100868974408
            ],
            [
              -1.7873936316379935,
              43.98738076287678
            ]
          ]
        ],
        "type": "Polygon"
      },
      "properties": {
        "id": "FR_TOY_004",
        "name": "Toy_004"
      },
      "type": "Feature"
    },
    {
      "geometry": {
        "coordinates": [
          [
            [
              -3.766837282967118,
              44.88792263139271
            ],
            [
              -3.205690093382963,
              45.572566855425976
            ],
            [
              -1.9682713070895448,
              45.314275891757916
            ],
            [
              -1.7873936316379935,
              43.98738076287678
            ],
            [
              -3.268231871966873,
              43.79100868974408
            ],
            [
              -3.766837282967118,
              44.88792263139271
            ]
          ]
        ],
        "type": "Polygon"
      },
      "properties": {
        "id": "FR_TOY_005",
        "name": "Toy_005"
      },
      "type": "Feature"
    },
    {
      "geometry": {
        "coordinates": [
          [
            [
              -3.215438771492497,
              45.77944453528982
            ],
            [
              -1.4835981934527045,
              47.0167115624941
            ],
            [
              -1.3409350373568174,
              46.878959678549286
            ],
            [
              -1.8257335955722853,
              45.36342245067051
            ],
            [
              -1.9682713070895448,
              45.314275891757916
            ],
            [
              -3.205690093382963,
              45.572566855425976
            ],
            [
              -3.215438771492497,
              45.77944453528982
            ]
          ]
        ],
        "type": "Polygon"
      },
      "properties": {
        "id": "FR_TOY_006",
        "name": "Toy_006"
      },
      "type": "Feature"
    },
    {
      "geometry": {
        "coordinates": [
          [
            [
              -3.5259811517057464,
              46.880073451520246
            ],
            [
              -1.8311888077502152,
              47.759040173005864
            ],
            [
              -1.4835981934527045,
              47.0167115624941
            ],
            [
              -3.215438771492497,
              45.77944453528982
            ],
            [
              -3.5259811517057464,
              46.880073451520246
            ]
          ]
        ],
        "type": "Polygon"
      },
      "properties": {
        "id": "FR_TOY_007",
        "name": "Toy_007"
      },
      "type": "Feature"
    },
    {
      "geometry": {
        "coordinates": [
          [
            [
              -1.6629091995995138,
              48.6513999060748
            ],
            [
              -1.8311888077502152,
              47.759040173005864
            ],
            [
              -3.5259811517057464,
              46.880073451520246
            ],
            [
              -4.331521061845544,
              47.631568631583086
            ],
            [
              -4.3589486815930485,
              47.72413568589405
            ],
            [
              -3.9466313614653172,
              48.69743173580897
            ],
            [
              -1.840704781665405,
              49.3069099802099
            ],
            [
              -1.72994098192886,
              49.22832707415582
            ],
            [
              -1.6629091995995138,
              48.6513999060748
            ]
          ]
        ],
        "type": "Polygon"
      },
      "properties": {
        "id": "FR_TOY_008",
        "name": "Toy_008"
      },
      "type": "Feature"
    },
    {
      "geometry": {
        "coordinates": [
          [
            [
              -2.1209587060552124,
              50.172569268907225
            ],
            [
              -1.840704781665405,
              49.3069099802099
            ],
            [
              -3.9466313614653172,
              48.69743173580897
            ],
            [
              -4.20945255055049,
              49.15591258847592
            ],
            [
              -3.9852271642505936,
              50.94977394874765
            ],
            [
              -3.9614064518498657,
              51.0
            ],
            [
              -3.332560141848737,
              51.0
            ],
            [
              -2.1209587060552124,
              50.172569268907225
            ]
          ]
        ],
        "type": "Polygon"
      },
      "properties": {
        "id": "FR_TOY_009",
        "name": "Toy_009"
      },
      "type": "Feature"
    },
    {
      "geometry": {
        "coordinates": [
          [
            [
              0.028933268210877716,
              42.176861905998805
            ],
            [
              0.1092037898531973,
              42.0
            ],
            [
              -1.9240717262832012,
              42.0
            ],
            [
              -1.9920878338096601,
              42.34342521220733
            ],
            [
              -1.6692734051757792,
              42.595767627258
            ],
            [
              0.028933268210877716,
              42.176861905998805
            ]
          ]
        ],
        "type": "Polygon"
      },
      "properties": {
        "id": "FR_TOY_010",
        "name": "Toy_010"
      },
      "type": "Feature"
    },
    {
      "geometry": {
        "coordinates": [
          [
            [
              -1.3277178320043104,
              43.62679769510022
            ],
            [
              0.28506126389391817,
              44.25952915825131
            ],
            [
              0.028933268210877716,
              42.176861905998805
            ],
            [
              -1.6692734051757792,
              42.595767627258
            ],
            [
              -1.3277178320043104,
              43.62679769510022
            ]
          ]
        ],
        "type": "Polygon"
      },
      "properties": {
        "id": "FR_TOY_011",
        "name": "Toy_011"
      },
      "type": "Feature"
    },
    {
      "geometry": {
        "coordinates": [
          [
            [
              -1.9682713070895448,
              45.314275891757916
            ],
            [
              -1.8257335955722853,
              45.36342245067051
            ],
            [
              0.3107343317771254,
              45.10757208632433
            ],
            [
              0.35819391882830454,
              44.35219138101762
            ],
            [
              0.28506126389391817,
              44.25952915825131
            ],
            [
              -1.3277178320043104,
              43.62679769510022
            ],
            [
              -1.7873936316379935,
              43.98738076287678
            ],
            [
              -1.9682713070895448,
              45.314275891757916
            ]
          ]
        ],
        "type": "Polygon"
      },
      "properties": {
        "id": "FR_TOY_012",
        "name": "Toy_012"
      },
      "type": "Feature"
    },
    {
      "geometry": {
        "coordinates": [
          [
            [
              0.3868421203054584,
              45.296571424569905
            ],
            [
              0.3107343317771254,
              45.10757208632433
            ],
            [
              -1.8257335955722853,
              45.36342245067051
            ],
            [
              -1.3409350373568174,
              46.878959678549286
            ],
            [
              0.1992019187246441,
              46.46958376663039
            ],
            [
              0.35283728555585525,
              46.12907963557265
            ],
            [
              0.3868421203054584,
              45.296571424569905
            ]
          ]
        ],
        "type": "Polygon"
      },
      "properties": {
        "id": "FR_TOY_013",
        "name": "Toy_013"
      },
      "type": "Feature"
    },
    {
      "geometry": {
        "coordinates": [
          [
            [
              0.12880341298540898,
              47.401334923497764
            ],
            [
              0.26337913717145045,
              46.94661542410942
            ],
            [
              0.1992019187246441,
              46.46958376663039
            ],
            [
              -1.3409350373568174,
              46.878959678549286
            ],
            [
              -1.4835981934527045,
              47.0167115624941
            ],
            [
              -1.8311888077502152,
              47.759040173005864
            ],
            [
              -1.6629091995995138,
              48.6513999060748
            ],
            [
              0.12880341298540898,
              47.401334923497764
            ]
          ]
        ],
        "type": "Polygon"
      },
      "properties": {
        "id": "FR_TOY_014",
        "name": "Toy_014"
      },
      "type": "Feature"
    },
    {
      "geometry": {
        "coordinates": [
          [
            [
              0.45546649241994186,
              49.05368161410091
            ],
            [
              0.12880341298540898,
              47.401334923497764
            ],
            [
              -1.6629091995995138,
              48.6513999060748
            ],
            [
              -1.72994098192886,
              49.22832707415582
            ],
            [
              -1.4075586568638303,
              49.30192778043492
            ],
            [
              0.45546649241994186,
              49.05368161410091
            ]
          ]
        ],
        "type": "Polygon"
      },
      "properties": {
        "id": "FR_TOY_015",
        "name": "Toy_015"
      },
      "type": "Feature"
    },
    {
      "geometry": {
        "coordinates": [
          [
            [
              0.7417853254470391,
              49.17595267115802
            ],
            [
              0.45546649241994186,
              49.05368161410091
            ],
            [
              -1.4075586568638303,
              49.30192778043492
            ],
            [
              0.04115635216811009,
              51.0
            ],
            [
              0.546329875739461,
              51.0
            ],
            [
              0.9892470177168916,
              50.40368755121842
            ],
            [
              0.7417853254470391,
              49.17595267115802
            ]
          ]
        ],
        "type": "Polygon"
      },
      "properties": {
        "id": "FR_TOY_016",
        "name": "Toy_016"
      },
      "type": "Feature"
    },
    {
      "geometry": {
        "coordinates": [
          [
            [
              -1.4075586568638303,
              49.30192778043492
            ],
            [
              -1.72994098192886,
              49.22832707415582
            ],
            [
              -1.840704781665405,
              49.3069099802099
            ],
            [
              -2.1209587060552124,
              50.172569268907225
            ],
            [
              -1.700357254082253,
              51.0
            ],
            [
              0.04115635216811009,
              51.0
            ],
            [
              -1.4075586568638303,
              49.30192778043492
            ]
          ]
        ],
        "type": "Polygon"
      },
      "properties": {
        "id": "FR_TOY_017",
        "name": "Toy_017"
      },
      "type": "Feature"
    },
    {
      "geometry": {
        "coordinates": [
          [
            [
              2.356570875248358,
              42.924520165929636
            ],
            [
              2.7475341383448635,
              42.409319081672784
            ],
            [
              2.8392407706241536,
              42.0
            ],
            [
              1.1839170811229571,
              42.0
            ],
            [
              2.356570875248358,
              42.924520165929636
            ]
          ]
        ],
        "type": "Polygon"
      },
      "properties": {
        "id": "FR_TOY_018",
        "name": "Toy_018"
      },
      "type": "Feature"
    },
    {
      "geometry": {
        "coordinates": [
          [
            [
              2.356570875248358,
              42.924520165929636
            ],
            [
              1.1839170811229571,
              42.0
            ],
            [
              0.1092037898531973,
              42.0
            ],
            [
              0.028933268210877716,
              42.176861905998805
            ],
            [
              0.28506126389391817,
              44.25952915825131
            ],
            [
              0.35819391882830454,
              44.35219138101762
            ],
            [
              2.019986076119083,
              43.457725765849055
            ],
            [
              2.332308988653479,
              43.130587325452964
            ],
            [
              2.356570875248358,
              42.924520165929636
            ]
          ]
        ],
        "type": "Polygon"
      },
      "properties": {
        "id": "FR_TOY_019",
        "name": "Toy_019"
      },
      "type": "Feature"
    },
    {
      "geometry": {
        "coordinates": [
          [
            [
              0.35819391882830454,
              44.35219138101762
            ],
            [
              0.3107343317771254,
              45.10757208632433
            ],
            [
              0.3868421203054584,
              45.296571424569905
            ],
            [
              2.356811031851008,
              45.50780031106999
            ],
            [
              2.6141772842926305,
              45.222978023888984
            ],
            [
              2.019986076119083,
              43.457725765849055
            ],
            [
              0.35819391882830454,
              44.35219138101762
            ]
          ]
        ],
        "type": "Polygon"
      },
      "properties": {
        "id": "FR_TOY_020",
        "name": "Toy_020"
      },
      "type": "Feature"
    },
    {
      "geometry": {
        "coordinates": [
          [
            [
              2.549707120856092,
              47.08844479738449
            ],
            [
              2.8377904044468454,
              46.950062899958176
            ],
            [
              2.356811031851008,
              45.50780031106999
            ],
            [
              0.3868421203054584,
              45.296571424569905
            ],
            [
              0.35283728555585525,
              46.12907963557265
            ],
            [
              2.549707120856092,
              47.08844479738449
            ]
          ]
        ],
        "type": "Polygon"
      },
      "properties": {
        "id": "FR_TOY_021",
        "name": "Toy_021"
      },
      "type": "Feature"
    },
    {
      "geometry": {
        "coordinates": [
          [
            [
              0.1992019187246441,
              46.46958376663039
            ],
            [
              0.26337913717145045,
              46.94661542410942
            ],
            [
              1.833239448563333,
              48.14752447260273
            ],
            [
              2.549707120856092,
              47.08844479738449
            ],
            [
              0.35283728555585525,
              46.12907963557265
            ],
            [
              0.1992019187246441,
              46.46958376663039
            ]
          ]
        ],
        "type": "Polygon"
      },
      "properties": {
        "id": "FR_TOY_022",
        "name": "Toy_022"
      },
      "type": "Feature"
    },
    {
      "geometry": {
        "coordinates": [
          [
            [
              1.7945137103097368,
              48.56329632953412
            ],
            [
              1.833239448563333,
              48.14752447260273
            ],
            [
              0.26337913717145045,
              46.94661542410942
            ],
            [
              0.12880341298540898,
              47.401334923497764
            ],
            [
              0.45546649241994186,
              49.05368161410091
            ],
            [
              0.7417853254470391,
              49.17595267115802
            ],
            [
              1.7945137103097368,
              48.56329632953412
            ]
          ]
        ],
        "type": "Polygon"
      },
      "properties": {
        "id": "FR_TOY_023",
        "name": "Toy_023"
      },
      "type": "Feature"
    },
    {
      "geometry": {
        "coordinates": [
          [
            [
              2.641715553912335,
              49.14742274694848
            ],
            [
              1.7945137103097368,
              48.56329632953412
            ],
            [
              0.7417853254470391,
              49.17595267115802
            ],
            [
              0.9892470177168916,
              50.40368755121842
            ],
            [
              2.433341763074087,
              50.574864193807905
            ],
            [
              2.641715553912335,
              49.14742274694848
            ]
          ]
        ],
        "type": "Polygon"
      },
      "properties": {
        "id": "FR_TOY_024",
        "name": "Toy_024"
      },
      "type": "Feature"
    },
    {
      "geometry": {
        "coordinates": [
          [
            [
              0.9892470177168916,
              50.40368755121842
            ],
            [
              0.546329875739461,
              51.0
            ],
            [
              2.6999194492050407,
              51.0
            ],
            [
              2.7009843134417673,
              50.89224878289985
            ],
            [
              2.433341763074087,
              50.574864193807905
            ],
            [
              0.9892470177168916,
              50.40368755121842
            ]
          ]
        ],
        "type": "Polygon"
      },
      "properties": {
        "id": "FR_TOY_025",
        "name": "Toy_025"
      },
      "type": "Feature"
    },
    {
      "geometry": {
        "coordinates": [
          [
            [
              2.7475341383448635,
              42.409319081672784
            ],
            [
              5.08179798961147,
              42.73507447986736
            ],
            [
              5.083719678391093,
              42.72942842561271
            ],
            [
              5.029350918791239,
              42.0
            ],
            [
              2.8392407706241536,
              42.0
            ],
            [
              2.7475341383448635,
              42.409319081672784
            ]
          ]
        ],
        "type": "Polygon"
      },
      "properties": {
        "id": "FR_TOY_026",
        "name": "Toy_026"
      },
      "type": "Feature"
    },
    {
      "geometry": {
        "coordinates": [
          [
            [
              3.8458076084059254,
              44.16550552833776
            ],
            [
              5.084335743949666,
              42.778549007683225
            ],
            [
              5.08179798961147,
              42.73507447986736
            ],
            [
              2.7475341383448635,
              42.409319081672784
            ],
            [
              2.356570875248358,
              42.924520165929636
            ],
            [
              2.332308988653479,
              43.130587325452964
            ],
            [
              3.8458076084059254,
              44.16550552833776
            ]
          ]
        ],
        "type": "Polygon"
      },
      "properties": {
        "id": "FR_TOY_027",
        "name": "Toy_027"
      },
      "type": "Feature"
    },
    {
      "geometry": {
        "coordinates": [
          [
            [
              2.019986076119083,
              43.457725765849055
            ],
            [
              2.6141772842926305,
              45.222978023888984
            ],
            [
              3.970573829417953,
              44.853829684005156
            ],
            [
              3.8458076084059254,
              44.16550552833776
            ],
            [
              2.332308988653479,
              43.130587325452964
            ],
            [
              2.019986076119083,
              43.457725765849055
            ]
          ]
        ],
        "type": "Polygon"
      },
      "properties": {
        "id": "FR_TOY_028",
        "name": "Toy_028"
      },
      "type": "Feature"
    },
    {
      "geometry": {
        "coordinates": [
          [
            [
              2.356811031851008,
              45.50780031106999
            ],
            [
              2.8377904044468454,
              46.950062899958176
            ],
            [
              3.102821791296058,
              46.98173908161321
            ],
            [
              4.5106056519346724,
              45.44849740288114
            ],
            [
              3.970573829417953,
              44.853829684005156
            ],
            [
              2.6141772842926305,
              45.222978023888984
            ],
            [
              2.356811031851008,
              45.50780031106999
            ]
          ]
        ],
        "type": "Polygon"
      },
      "properties": {
        "id": "FR_TOY_029",
        "name": "Toy_029"
      },
      "type": "Feature"
    },
    {
      "geometry": {
        "coordinates": [
          [
            [
              5.104871389591368,
              45.992991405425784
            ],
            [
              4.855626944261905,
              45.52725830395927
            ],
            [
              4.5106056519346724,
              45.44849740288114
            ],
            [
              3.102821791296058,
              46.98173908161321
            ],
            [
              4.086664762372408,
              48.066623602802174
            ],
            [
              4.458524738356266,
              47.88858134734173
            ],
            [
              5.104871389591368,
              45.992991405425784
            ]
          ]
        ],
        "type": "Polygon"
      },
      "properties": {
        "id": "FR_TOY_030",
        "name": "Toy_030"
      },
      "type": "Feature"
    },
    {
      "geometry": {
        "coordinates": [
          [
            [
              3.9370215057913587,
              48.817160096023436
            ],
            [
              4.086664762372408,
              48.066623602802174
            ],
            [
              3.102821791296058,
              46.98173908161321
            ],
            [
              2.8377904044468454,
              46.950062899958176
            ],
            [
              2.549707120856092,
              47.08844479738449
            ],
            [
              1.833239448563333,
              48.14752447260273
            ],
            [
              1.7945137103097368,
              48.56329632953412
            ],
            [
              2.641715553912335,
              49.14742274694848
            ],
            [
              3.9370215057913587,
              48.817160096023436
            ]
          ]
        ],
        "type": "Polygon"
      },
      "properties": {
        "id": "FR_TOY_031",
        "name": "Toy_031"
      },
      "type": "Feature"
    },
    {
      "geometry": {
        "coordinates": [
          [
            [
              2.7009843134417673,
              50.89224878289985
            ],
            [
              4.519975959645506,
              50.26683510773718
            ],
            [
              4.566110184972805,
              50.18633449914288
            ],
            [
              4.500496438832421,
              49.67763252943221
            ],
            [
              3.9370215057913587,
              48.817160096023436
            ],
            [
              2.641715553912335,
              49.14742274694848
            ],
            [
              2.433341763074087,
              50.574864193807905
            ],
            [
              2.7009843134417673,
              50.89224878289985
            ]
          ]
        ],
        "type": "Polygon"
      },
      "properties": {
        "id": "FR_TOY_032",
        "name": "Toy_032"
      },
      "type": "Feature"
    },
    {
      "geometry": {
        "coordinates": [
          [
            [
              5.083719678391093,
              42.72942842561271
            ],
            [
              7.047470121933184,
              42.192248359989094
            ],
            [
              7.004515963708646,
              42.0
            ],
            [
              5.029350918791239,
              42.0
            ],
            [
              5.083719678391093,
              42.72942842561271
            ]
          ]
        ],
        "type": "Polygon"
      },
      "properties": {
        "id": "FR_TOY_033",
        "name": "Toy_033"
      },
      "type": "Feature"
    },
    {
      "geometry": {
        "coordinates": [
          [
            [
              5.08179798961147,
              42.73507447986736
            ],
            [
              5.084335743949666,
              42.778549007683225
            ],
            [
              6.132448309925456,
              44.062998143040815
            ],
            [
              7.550155758290874,
              42.67734837531082
            ],
            [
              7.047470121933184,
              42.192248359989094
            ],
            [
              5.083719678391093,
              42.72942842561271
            ],
            [
              5.08179798961147,
              42.73507447986736
            ]
          ]
        ],
        "type": "Polygon"
      },
      "properties": {
        "id": "FR_TOY_034",
        "name": "Toy_034"
      },
      "type": "Feature"
    },
    {
      "geometry": {
        "coordinates": [
          [
            [
              4.5106056519346724,
              45.44849740288114
            ],
            [
              4.855626944261905,
              45.52725830395927
            ],
            [
              6.190518179604249,
              44.5093818651369
            ],
            [
              6.132448309925456,
              44.062998143040815
            ],
            [
              5.084335743949666,
              42.778549007683225
            ],
            [
              3.8458076084059254,
              44.16550552833776
            ],
            [
              3.970573829417953,
              44.853829684005156
            ],
            [
              4.5106056519346724,
              45.44849740288114
            ]
          ]
        ],
        "type": "Polygon"
      },
      "properties": {
        "id": "FR_TOY_035",
        "name": "Toy_035"
      },
      "type": "Feature"
    },
    {
      "geometry": {
        "coordinates": [
          [
            [
              6.190518179604249,
              44.5093818651369
            ],
            [
              4.855626944261905,
              45.52725830395927
            ],
            [
              5.104871389591368,
              45.992991405425784
            ],
            [
              7.551289879206127,
              47.9100158108809
            ],
            [
              8.0,
              47.971129518372074
            ],
            [
              8.0,
              45.45001073340258
            ],
            [
              6.190518179604249,
              44.5093818651369
            ]
          ]
        ],
        "type": "Polygon"
      },
      "properties": {
        "id": "FR_TOY_036",
        "name": "Toy_036"
      },
      "type": "Feature"
    },
    {
      "geometry": {
        "coordinates": [
          [
            [
              7.551289879206127,
              47.9100158108809
            ],
            [
              5.104871389591368,
              45.992991405425784
            ],
            [
              4.458524738356266,
              47.88858134734173
            ],
            [
              7.495417851031018,
              47.92214857077694
            ],
            [
              7.551289879206127,
              47.9100158108809
            ]
          ]
        ],
        "type": "Polygon"
      },
      "properties": {
        "id": "FR_TOY_037",
        "name": "Toy_037"
      },
      "type": "Feature"
    },
    {
      "geometry": {
        "coordinates": [
          [
            [
              4.500496438832421,
              49.67763252943221
            ],
            [
              7.495417851031018,
              47.92214857077694
            ],
            [
              4.458524738356266,
              47.88858134734173
            ],
            [
              4.086664762372408,
              48.066623602802174
            ],
            [
              3.9370215057913587,
              48.817160096023436
            ],
            [
              4.500496438832421,
              49.67763252943221
            ]
          ]
        ],
        "type": "Polygon"
      },
      "properties": {
        "id": "FR_TOY_038",
        "name": "Toy_038"
      },
      "type": "Feature"
    },
    {
      "geometry": {
        "coordinates": [
          [
            [
              8.0,
              50.77531907335976
            ],
            [
              8.0,
              47.971129518372074
            ],
            [
              7.551289879206127,
              47.9100158108809
            ],
            [
              7.495417851031018,
              47.92214857077694
            ],
            [
              4.500496438832421,
              49.67763252943221
            ],
            [
              4.566110184972805,
              50.18633449914288
            ],
            [
              8.0,
              50.77531907335976
            ]
          ]
        ],
        "type": "Polygon"
      },
      "properties": {
        "id": "FR_TOY_039",
        "name": "Toy_039"
      },
      "type": "Feature"
    }
  ],
  "type": "FeatureCollection"
}